CCSDS_OEM_VERS = 2.0  
CREATION_DATE  = 2026-05-08T16:27:01
ORIGINATOR     = ESOC/OPS-GFA                            
 
 



META_START
OBJECT_NAME          = LISA                                    
OBJECT_ID            = -1000                                   
CENTER_NAME          = SUN                     
REF_FRAME            = EME2000 
TIME_SYSTEM          = TCB
START_TIME           = 2036-12-23T00:00:30.346418            
STOP_TIME            = 2047-09-09T06:58:06.343121            
INTERPOLATION        = HERMITE                                 
INTERPOLATION_DEGREE = 7                                       
META_STOP

2047-06-21T22:49:31.806895    -6.41869399775797352e+07   -1.23098481309724599e+08   -5.47097135272717476e+07    2.69861025942929906e+01   -1.17992929659758303e+01   -5.10768637736029607e+00    2.56390106165438680e-06    4.91704127377496633e-06    2.18534052888065731e-06
2047-06-22T19:06:24.131529    -6.22098581558167115e+07   -1.23946838968459338e+08   -5.50767996781072170e+07    2.71704195258445331e+01   -1.14390445617724037e+01   -4.94759133293325704e+00    2.48493468461843501e-06    4.95093455265516334e-06    2.20000582296684857e-06
2047-06-23T15:23:16.456164    -6.02195298739800900e+07   -1.24768804565696657e+08   -5.54321582070954442e+07    2.73489512491240667e+01   -1.10763605168370667e+01   -4.78644286774729988e+00    2.40543188140931576e-06    4.98375865198166595e-06    2.21419596349987288e-06
2047-06-24T11:40:08.780798    -5.82163789336475432e+07   -1.25564203113535345e+08   -5.57757134653182775e+07    2.75216592400245901e+01   -1.07113191640808338e+01   -4.62427579038158232e+00    2.32541024261592625e-06    5.01550621750283485e-06    2.22790777298360019e-06
2047-06-25T07:57:01.105433    -5.62008319192986190e+07   -1.26332865496946260e+08   -5.61073924131599441e+07    2.76885062618555260e+01   -1.03439993667624641e+01   -4.46112513845349312e+00    2.24488744036669079e-06    5.04617007150788903e-06    2.24113815301483857e-06
2047-06-26T04:19:17.222866    -5.41643005275515541e+07   -1.27077857708426058e+08   -5.64285157751681060e+07    2.78501569714957853e+01   -9.97283697626946442e+00   -4.29629636380985946e+00    2.16352123454425368e-06    5.07587252411825579e-06    2.25393979347842535e-06
2047-06-27T00:41:33.340300    -5.21161335299902633e+07   -1.27795551445878401e+08   -5.67375172573123723e+07    2.80058232790295065e+01   -9.59953686517828686e+00   -4.13054677073680665e+00    2.08168571753851483e-06    5.10446827450809261e-06    2.26624997646641999e-06
2047-06-27T21:03:49.457734    -5.00567710370501205e+07   -1.28485792952754036e+08   -5.70343306692914516e+07    2.81554714391554697e+01   -9.22418042475423405e+00   -3.96391249959880199e+00    1.99939923531191200e-06    5.13195108054521113e-06    2.27806602192102311e-06
2047-06-28T17:26:05.575167    -4.79866555928806737e+07   -1.29148434390864521e+08   -5.73188924486815855e+07    2.82990690553396398e+01   -8.84684949682460520e+00   -3.79642988407619031e+00    1.91668022536425038e-06    5.15831490188271757e-06    2.28938534006924518e-06
2047-06-29T13:48:21.692600    -4.59062320700326115e+07   -1.29783333931043297e+08   -5.75911417005451694e+07    2.84365850865704566e+01   -8.46762635793769114e+00   -3.62813544409127253e+00    1.83354721764553733e-06    5.18355392742898499e-06    2.30020544334482496e-06
2047-06-30T10:10:37.810033    -4.38159475664920509e+07   -1.30390355814799398e+08   -5.78510202242292389e+07    2.85679898541376076e+01   -8.08659370170410341e+00   -3.45906587794645404e+00    1.75001883433501053e-06    5.20766259753963779e-06    2.31052395599516071e-06
2047-07-01T06:32:53.927466    -4.17162513044283018e+07   -1.30969370393015280e+08   -5.80984725300258473e+07    2.86932550483530484e+01   -7.70383461970391892e+00   -3.28925805384263192e+00    1.66611378848740442e-06    5.23063562093913887e-06    2.32033862137666439e-06
2047-07-02T02:55:10.044899    -3.96075945300397873e+07   -1.31520254147731394e+08   -5.83334458483625203e+07    2.88123537351310759e+01   -7.31943258134648111e+00   -3.11874900094749297e+00    1.58185088154230402e-06    5.25246798636046823e-06    2.32964730693331805e-06
2047-07-02T23:17:26.162333    -3.74904304138825387e+07   -1.32042889703059837e+08   -5.85558901341908202e+07    2.89252603623442894e+01   -6.93347141306963088e+00   -2.94757590018337678e+00    1.49724899970391975e-06    5.27315496892273894e-06    2.33844800686735729e-06
2047-07-03T19:39:42.279766    -3.53652139510659873e+07   -1.32537165831269979e+08   -5.87657580692412779e+07    2.90319507658722635e+01   -6.54603527726519552e+00   -2.77577607490434941e+00    1.41232710917938442e-06    5.29269213121459548e-06    2.34673884248769234e-06
2047-07-04T16:01:58.397199    -3.32324018607003056e+07   -1.33002977460088372e+08   -5.89630050648127496e+07    2.91324021752597488e+01   -6.15720865131753037e+00   -2.60338698163217241e+00    1.32710425029145295e-06    5.31107531912853450e-06    2.35451806025622021e-06
2047-07-05T12:24:14.514632    -3.10924524839800894e+07   -1.33440225687255487e+08   -5.91475892677644119e+07    2.92265932189012148e+01   -5.76707630714194686e+00   -2.43044620102079145e+00    1.24159953045459717e-06    5.32830065240786300e-06    2.36178402751505084e-06
2047-07-06T08:46:30.632066    -2.89458256802887507e+07   -1.33848817808382064e+08   -5.93194715723784193e+07    2.93145039286685964e+01   -5.37572329160980544e+00   -2.25699142921903650e+00    1.15583211600250218e-06    5.34436450989119209e-06    2.36853522588749068e-06
2047-07-07T05:08:46.749499    -2.67929827207083814e+07   -1.34228667364147395e+08   -5.94786156407614946e+07    2.93961157438989886e+01   -4.98323490824708237e+00   -2.08306046980115145e+00    1.06982122291338572e-06    5.35926350955694043e-06    2.37477024239927265e-06
2047-07-08T01:31:02.866933    -2.46343861783190966e+07   -1.34579694212882191e+08   -5.96249879344534948e+07    2.94714115146592199e+01   -4.58969670059324386e+00   -1.90869122643487321e+00    9.83586106372829802e-07    5.37299448322417791e-06    2.38048775825509813e-06
2047-07-08T21:53:18.984366    -2.24704998146731704e+07   -1.34901824634578586e+08   -5.97585577599111646e+07    2.95403755042040004e+01   -4.19519443760722321e+00   -1.73392169645662486e+00    8.97146049189978291e-07    5.38555444595148690e-06    2.38568653528987527e-06
2047-07-09T18:07:53.810710    -2.03154440273745023e+07   -1.35193237747962445e+08   -5.98785778747682497e+07    2.96026193838244360e+01   -3.80230362314850279e+00   -1.55989260308473576e+00    8.11065934440159867e-07    5.39687334184860474e-06    2.39033791800449978e-06
2047-07-10T14:22:28.637054    -1.81560809515062869e+07   -1.35455989998878896e+08   -5.99859037605341673e+07    2.96585840928719904e+01   -3.40863023567013190e+00   -1.38554326915593751e+00    7.24821659188711672e-07    5.40703130582918556e-06    2.39447518932174356e-06
2047-07-11T10:37:03.463398    -1.59928685843484104e+07   -1.35690027471559733e+08   -6.00805134586472213e+07    2.97082583626213435e+01   -3.01425894652809001e+00   -1.21091118792604080e+00    6.38432287375163721e-07    5.41602648592523753e-06    2.39809760917219679e-06
2047-07-12T06:51:38.289742    -1.38262657171761543e+07   -1.35895302365061551e+08   -6.01623877181598246e+07    2.97516323147402950e+01   -2.61927455467883297e+00   -1.03603390334863987e+00    5.51916912368992648e-07    5.42385723700802781e-06    2.40120452840042201e-06
2047-07-13T03:06:13.116087    -1.16567318145598359e+07   -1.36071773054468095e+08   -6.02315100223136842e+07    2.97886974631957884e+01   -2.22376197063415759e+00   -8.60949003017151604e-01    4.65294650438388929e-07    5.43052214650867929e-06    2.40379540021743548e-06
2047-07-13T23:20:47.942429    -9.48472690267548710e+06   -1.36219404125791907e+08   -6.02878666035215259e+07    2.98194467156932603e+01   -1.82780619873079608e+00   -6.85694110356060094e-01    3.78584634502300352e-07    5.43602005504915389e-06    2.40586978939811534e-06
2047-07-14T19:35:22.768774    -7.31071146462611854e+06   -1.36338166390033633e+08   -6.03314464491610229e+07    2.98438743746709818e+01   -1.43149231808177646e+00   -5.10306876223966421e-01    2.91806008164976913e-07    5.44035007199087553e-06    2.40742737922686457e-06
2047-07-15T15:49:57.595118    -5.13514634079319984e+06   -1.36428036881851912e+08   -6.03622413005844578e+07    2.98619761378699309e+01   -1.03490546258021565e+00   -3.34824970092683305e-01    2.04977920031809315e-07    5.44351158588913350e-06    2.40846797618621277e-06
2047-07-16T12:04:32.421462    -2.95849263223799691e+06   -1.36488998848297447e+08   -6.03802456477477625e+07    2.98737490984997436e+01   -6.38130800326221603e-01   -1.59286070966597304e-01    1.18119518308570821e-07    5.44550426987413453e-06    2.40899151239764455e-06
2047-07-17T08:19:07.247806    -7.81211605172269046e+05   -1.36521041733064204e+08   -6.03854567218623981e+07    2.98791917450212843e+01   -2.41253512847559470e-01    1.62721417934701407e-02    3.12499456807407963e-08    5.44632808192468338e-06    2.40899804579956071e-06
2047-07-18T04:33:42.074150     1.39623540548186377e+06   -1.36524161161711186e+08   -6.03778744884736985e+07    2.98783039605664342e+01    1.55641225515184445e-01    1.91811997577656435e-01   -5.56116655233099095e-08    5.44598326008215783e-06    2.40848775808342825e-06
2047-07-19T00:48:16.900494     3.57338709542349726e+06   -1.36498358933307886e+08   -6.03575016433692500e+07    2.98710870220156259e+01    5.52468267688362324e-01    3.67295843401510780e-01   -1.42446197885988420e-07    5.44447031256485749e-06    2.40746095037060300e-06
2047-07-19T21:02:51.726838     5.74978229517600313e+06   -1.36443643023956776e+08   -6.03243436137208566e+07    2.98575435987536650e+01    9.49142513039173963e-01    5.42686052383222872e-01   -2.29234553179036686e-07    5.44179000276519186e-06    2.40591803662186905e-06
